satname,norad_id,inclination_deg,eccentricity,mean_motion_rev_per_day,perigee_km,apogee_km,l1,l2
STARLINK-1458,45675,53.053,0.0006737,15.43021495,432.60623741063955,441.78921942371016,1 45675U 20035U   26067.25316232  .00053373  00000+0  11917-2 0  9993,2 45675  53.0530  62.3186 0006737  71.7301 288.4436 15.43021495318633
STARLINK-1460,45676,53.1539,0.000117,15.29250791,477.24852831256794,478.85287623489967,1 45676U 20035V   26067.66667824  .00068020  00000+0  23556-2 0  9992,2 45676  53.1539  69.6540 0001170  79.6038 206.3200 15.29250791  5748
STARLINK-1392,45677,53.1576,0.0001219,15.29389865,476.7993355982453,478.47077282506143,1 45677U 20035W   26067.28456055  .00011041  00000+0  39398-3 0  9996,2 45677  53.1576  71.2825 0001219  89.3778 270.7362 15.29389865318542
STARLINK-1394,45679,53.0496,0.00027,15.49525609,416.2778534761728,419.9478283902772,1 45679U 20035Y   26067.32717208  .00129349  00000+0  22777-2 0  9996,2 45679  53.0496  43.1007 0002700 113.0762 247.0531 15.49525609318947
STARLINK-1402,45685,53.0495,7.69e-05,15.44568012,432.12392986722534,433.1714285508888,1 45685U 20035AE  26067.29609910  .00101897  00000+0  21392-2 0  9999,2 45685  53.0495  30.0288 0000769 195.8806 164.2175 15.44568012319135
STARLINK-1404,45686,53.1619,0.0001458,15.30194162,474.2332794172371,476.23172196363885,1 45686U 20035AF  26067.19364437  .00002705  00000+0  10343-3 0  9994,2 45686  53.1619  56.6496 0001458  98.6831 261.4335 15.30194162318744
STARLINK-1413,45689,53.161,0.0001107,15.30188918,474.4894887364353,476.00682821052214,1 45689U 20035AJ  26067.26525655  .00001654  00000+0  67976-4 0  9993,2 45689  53.1610  56.1938 0001107  98.1372 261.9755 15.30188918318675
STARLINK-1417,45693,53.0519,0.0002123,15.12428514,527.3300886425204,530.2627725771581,1 45693U 20035AN  26067.21032745  .00038081  00000+0  21719-2 0  9993,2 45693  53.0519  61.0144 0002123 232.1072 127.9728 15.12428514318677
STARLINK-1420,45695,53.0532,0.0004091,15.53367771,404.12571254268187,409.6772310202932,1 45695U 20035AQ  26067.66667824  .00152947  00000+0  23396-2 0  9997,2 45695  53.0532  27.3516 0004091 105.1838 355.7312 15.53367771  5920
STARLINK-1422,45696,53.1613,0.0001204,15.3019913,474.39252318181934,476.04281098565207,1 45696U 20035AR  26067.46857158  .00001520  00000+0  63445-4 0  9998,2 45696  53.1613  55.2538 0001204  99.8918 260.2219 15.30199130318781
STARLINK-1351,45697,53.0538,0.0003386,15.52036783,408.4813099854755,413.0787646031313,1 45697U 20035AS  26067.30264034  .00126795  00000+0  20430-2 0  9994,2 45697  53.0538  28.3011 0003386 117.7162 242.4191 15.52036783319159
STARLINK-1398,45699,53.035,0.00041,15.94810965,286.10770260681875,291.5746247010147,1 45699U 20035AU  26067.66667824  .00384351  69564-4  98272-3 0  9998,2 45699  53.0350 304.4426 0004100 183.8571 333.4503 15.94810965  6030
STARLINK-1400,45700,53.0516,0.0007887,15.50233051,410.6864865389198,421.4036293170957,1 45700U 20035AV  26067.52777662  .00111494  00000+0  19186-2 0  9995,2 45700  53.0516  28.5380 0007887  89.9962 270.1949 15.50233051319164
STARLINK-1403,45701,53.1005,0.0001701,15.16932513,513.9453027002128,516.2903879986006,1 45701U 20035AW  26067.66667824  .01811968  00000+0  82539-1 0  9994,2 45701  53.1005  41.0009 0001701  78.7223 328.2515 15.16932513  5541
STARLINK-1407,45703,53.0345,0.0010743,15.59496474,381.84329287170476,396.3834069735476,1 45703U 20035AY  26067.41723604  .00141934  00000+0  17291-2 0  9990,2 45703  53.0345 321.9616 0010743 101.3632 258.8588 15.59496474320092
STARLINK-1411,45706,53.0443,0.0005449,15.61835133,378.6724447958786,386.0400303261722,1 45706U 20035BB  26067.66667824  .00213258  00000+0  23558-2 0  9993,2 45706  53.0443 346.4342 0005449 127.3118 215.5755 15.61835133  5960
STARLINK-1423,45710,53.0518,0.0007646,15.52429197,404.4460159883465,414.8258783791789,1 45710U 20035BF  26067.11125572  .00109653  00000+0  17454-2 0  9998,2 45710  53.0518  29.6175 0007646  98.8369 261.3506 15.52429197319109
STARLINK-1433,45711,53.0513,0.0007689,15.5460897,398.0753047004955,408.5037824391975,1 45711U 20035BG  26067.52371231  .00103334  00000+0  15214-2 0  9991,2 45711  53.0513  26.6900 0007689  96.9282 263.2602 15.54608970319184
STARLINK-1434,45712,53.0546,0.0005164,15.26582642,482.4925109698297,489.58183005313276,1 45712U 20035BH  26067.25939321  .00076380  00000+0  28631-2 0  9999,2 45712  53.0546  26.6617 0005164  84.6544 275.5043 15.26582642319177
STARLINK-1465,45731,53.0522,0.0002582,15.49743806,415.7202779050094,419.229531892699,1 45731U 20038B   26067.61325642  .00088251  00000+0  15528-2 0  9999,2 45731  53.0522 228.3273 0002582 259.8891 100.1825 15.49743806316212
STARLINK-1471,45735,53.0466,8.26e-05,15.48826813,419.5953587369786,420.7184368888975,1 45735U 20038F   26067.48484777  .00036528  00000+0  67296-3 0  9993,2 45735  53.0466 147.7963 0000826 234.8975 125.1955 15.48826813317343
STARLINK-1480,45741,53.0514,0.0006991,15.47560433,419.10984151804587,428.6204008839095,1 45741U 20038M   26067.63271623  .00035952  00000+0  69182-3 0  9997,2 45741  53.0514 222.3052 0006991 177.2281 182.8766 15.47560433316310
STARLINK-1500,45744,53.0369,0.0001994,15.34731739,460.35355262781286,463.0812865703492,1 45744U 20038Q   26067.63577713  .00039984  00000+0  11757-2 0  9992,2 45744  53.0369 197.6957 0001994 243.1781 116.9016 15.34731739316653
STARLINK-1504,45746,53.0222,4.61e-05,15.53097525,407.3757073394072,408.0013604536334,1 45746U 20038S   26067.59276351  .00042954  00000+0  67824-3 0  9991,2 45746  53.0222 147.4785 0000461 180.2790 179.8219 15.53097525317343
STARLINK-1506,45747,53.0734,0.0002565,15.26074254,485.8004964073398,489.3225997625086,1 45747U 20038T   26067.61245664  .00015695  00000+0  61294-3 0  9995,2 45747  53.0734 207.3487 0002565 225.5602 134.5186 15.26074254316523
STARLINK-1464,45751,53.0525,0.0002269,15.43891992,433.0898631591763,436.1814994019405,1 45751U 20038X   26067.59636301  .00089937  00000+0  19358-2 0  9992,2 45751  53.0525 209.8249 0002269 248.4845 111.5918 15.43891992316481
STARLINK-1477,45754,53.0517,0.0001018,15.14229931,522.6148462931296,524.0199824118918,1 45754U 20038AA  26067.57730638  .00036563  00000+0  19841-2 0  9995,2 45754  53.0517 218.0200 0001018 109.5942 250.5160 15.14229931316366
STARLINK-1478,45755,53.0526,0.0003697,15.54767352,400.32206959370615,405.33591584872465,1 45755U 20038AB  26067.60492549  .00102422  00000+0  15008-2 0  9995,2 45755  53.0526 203.1335 0003697 231.6481 128.4198 15.54767352316565
STARLINK-1484,45756,52.998,0.0006048,16.02294554,264.04639897292327,272.0856461490139,1 45756U 20038AC  26067.52283673  .00579941  16490-3  97011-3 0  9996,2 45756  52.9980  62.6199 0006048  62.8599 297.3047 16.02294554318510
STARLINK-1493,45759,53.0527,0.00015,15.49978017,415.7710766745631,417.8095548692945,1 45759U 20038AF  26067.61168568  .00108629  00000+0  18890-2 0  9998,2 45759  53.0527 209.6748 0001500  42.2382 317.8741 15.49978017316470
STARLINK-1494,45760,53.048,0.0005199,15.73494785,345.42046385332196,352.4152554964121,1 45760U 20038AG  26067.54449703  .00122007  00000+0  84972-3 0  9996,2 45760  53.0480 157.3142 0005199 359.2306   0.8703 15.73494785317214
STARLINK-1502,45764,53.0535,0.0002402,15.46901402,424.16259724139854,427.4312070879978,1 45764U 20038AL  26067.65292289  .00099838  00000+0  19357-2 0  9996,2 45764  53.0535 210.9977 0002402  11.3764 348.7297 15.46901402316477
STARLINK-1470,45772,53.0492,0.0001106,15.27945059,481.19746940389814,482.71492201878937,1 45772U 20038AU  26067.62781512  .00046338  00000+0  16789-2 0  9997,2 45772  53.0492 179.2483 0001106  11.0235 349.0787 15.27945059316919
STARLINK-1482,45773,53.1603,0.0001035,15.30206785,474.4854908647767,475.904130549593,1 45773U 20038AV  26067.57064174  .00003241  00000+0  12149-3 0  9993,2 45773  53.1603 196.2161 0001035  90.8904 269.2215 15.30206785316678
STARLINK-1496,45780,53.0507,0.000282,15.47939131,420.8378332290331,424.6735367033534,1 45780U 20038BC  26067.66667824  .00126367  00000+0  23532-2 0  9994,2 45780  53.0507 182.7196 0002820 221.6245  99.7233 15.47939131  5858
STARLINK-1513,45786,53.1616,0.0001335,15.30199542,474.3015142412796,476.1313596089394,1 45786U 20038BJ  26067.51484561  .00004981  00000+0  18020-3 0  9993,2 45786  53.1616 196.6111 0001335 116.5406 243.5732 15.30199542316661
STARLINK-1522,46027,53.0629,0.0001591,15.09061158,537.9669527596607,540.1680072251947,1 46027U 20055A   26067.55577276  .00014356  00000+0  91269-3 0  9994,2 46027  53.0629 131.5906 0001591  68.5720 291.5440 15.09061158308715
STARLINK-1523,46028,53.0981,7.57e-05,15.16821494,514.9323498632011,515.9760395700805,1 46028U 20055B   26067.66667824  .00982255  00000+0  45979-1 0  9993,2 46028  53.0981 130.9107 0000757  93.9188 169.9964 15.16821494  5815
STARLINK-1526,46029,53.1003,0.0001196,15.17158874,513.6078252288744,515.2565277758949,1 46029U 20055C   26067.66667824  .00634487  00000+0  29646-1 0  9998,2 46029  53.1003 130.8806 0001196  67.4842 252.7488 15.17158874  5805
STARLINK-1555,46032,53.0969,0.0001064,15.16397529,516.0054255848863,517.4726552062821,1 46032U 20055F   26067.66667824  .01074063  00000+0  50542-1 0  9990,2 46032  53.0969 130.9568 0001064  72.7437 285.2031 15.16397529  5747
STARLINK-1556,46033,53.1014,0.000203,15.17398482,512.3075227354975,515.1056112236902,1 46033U 20055G   26067.66667824  .01071358  00000+0  49015-1 0  9998,2 46033  53.1014 130.8984 0002030  72.3885  58.0589 15.17398482  5742
STARLINK-1557,46034,53.1054,0.0002025,15.18222495,509.8175561527496,512.6077427607806,1 46034U 20055H   26067.66667824  .01030881  00000+0  46203-1 0  9991,2 46034  53.1054 130.8398 0002025  76.0158  66.6735 15.18222495  5800
STARLINK-1558,46035,53.0973,0.0001063,15.16536706,515.584311529703,517.0500724909243,1 46035U 20055J   26067.66667824  .01213587  00000+0  56298-1 0  9993,2 46035  53.0973 130.9754 0001063  56.5928 331.3002 15.16536706  5693
